NORAD_CAT_ID,OBJECT_NAME,OBJECT_TYPE,EPOCH,MEAN_MOTION,ECCENTRICITY,INCLINATION,RA_OF_ASC_NODE,ARG_OF_PERICENTER,MEAN_ANOMALY,BSTAR,MEAN_MOTION_DOT,MEAN_MOTION_DDOT,TLE_LINE0,TLE_LINE1,TLE_LINE2,SEMIMAJOR_AXIS,PERIOD,APOGEE,PERIGEE,DECAYED
50179.0,STARLINK-3283,PAYLOAD,2023-01-30 22:14:20,15.08843709,0.0001253,53.2142,298.7891,83.3888,276.7247,0.00010022,1.308e-05,0.0,0 STARLINK-3283,1 50179U 21125Z   23030.92662234  .00001308  00000-0  10022-3 0  9995,2 50179  53.2142 298.7891 0001253  83.3888 276.7247 15.08843709 65443,6917.869,95.437,540.601,538.867,0.0
50179.0,STARLINK-3283,PAYLOAD,2023-01-31 03:00:29,15.08849091,0.0001238,53.2137,297.897,92.1337,267.9797,0.00024264,3.577e-05,0.0,0 STARLINK-3283,1 50179U 21125Z   23031.12534017  .00003577  00000-0  24264-3 0  9998,2 50179  53.2137 297.8970 0001238  92.1337 267.9797 15.08849091 65470,6917.853,95.437,540.574,538.861,0.0
50179.0,STARLINK-3283,PAYLOAD,2023-01-31 17:18:58,15.08833365,0.0001273,53.2151,295.2213,80.5691,279.5445,-3.2156e-06,-3.39e-06,0.0,0 STARLINK-3283,1 50179U 21125Z   23031.72150893 -.00000339  00000-0 -32156-5 0  9996,2 50179  53.2151 295.2213 0001273  80.5691 279.5445 15.08833365 65073,6917.901,95.438,540.646,538.885,0.0
50179.0,STARLINK-3283,PAYLOAD,2023-02-01 02:51:17,15.08836419,0.0001316,53.2144,293.4374,82.357,277.7571,6.8029e-05,7.95e-06,0.0,0 STARLINK-3283,1 50179U 21125Z   23032.11894926  .00000795  00000-0  68029-4 0  9993,2 50179  53.2144 293.4374 0001316  82.3570 277.7571 15.08836419 65621,6917.891,95.438,540.667,538.846,0.0
50179.0,STARLINK-3283,PAYLOAD,2023-02-01 15:34:22,15.08844789,0.000136,53.2137,291.0591,73.9358,286.1784,0.00025529,3.778e-05,0.0,0 STARLINK-3283,1 50179U 21125Z   23032.64886948  .00003778  00000-0  25529-3 0  9997,2 50179  53.2137 291.0591 0001360  73.9358 286.1784 15.08844789 65211,6917.866,95.437,540.672,538.79,0.0
50179.0,STARLINK-3283,PAYLOAD,2023-02-02 02:42:03,15.08862042,0.0001318,53.214,288.9769,76.0316,284.0823,0.00066162,0.00010264,0.0,0 STARLINK-3283,1 50179U 21125Z   23033.11253950  .00010264  00000-0  66162-3 0  9997,2 50179  53.2140 288.9769 0001318  76.0316 284.0823 15.08862042 65288,6917.813,95.436,540.59,538.766,0.0
50179.0,STARLINK-3283,PAYLOAD,2023-02-02 23:22:04,15.0885213,0.0001199,53.2131,285.1111,78.6876,281.4251,0.00020734,3.015e-05,0.0,0 STARLINK-3283,1 50179U 21125Z   23033.97366000  .00003015  00000-0  20734-3 0  9993,2 50179  53.2131 285.1111 0001199  78.6876 281.4251 15.08852130 65412,6917.843,95.437,540.538,538.879,0.0
50179.0,STARLINK-3283,PAYLOAD,2023-02-03 02:32:50,15.08855555,0.0001325,53.213,284.5164,80.7001,279.4141,0.00029888,4.474e-05,0.0,0 STARLINK-3283,1 50179U 21125Z   23034.10613855  .00004474  00000-0  29888-3 0  9991,2 50179  53.2130 284.5164 0001325  80.7001 279.4141 15.08855555 65922,6917.833,95.437,540.614,538.781,0.0
50179.0,STARLINK-3283,PAYLOAD,2023-02-03 16:51:19,15.08840553,0.0001878,53.2119,281.8392,85.2651,274.8555,0.00011471,1.538e-05,0.0,0 STARLINK-3283,1 50179U 21125Z   23034.70230367  .00001538  00000-0  11471-3 0  9997,2 50179  53.2119 281.8392 0001878  85.2651 274.8555 15.08840553 65522,6917.879,95.438,541.043,538.445,0.0
50179.0,STARLINK-3283,PAYLOAD,2023-02-04 21:28:15,15.08853362,0.0001298,53.2135,276.4879,77.4366,282.6771,0.00064043,9.923e-05,0.0,0 STARLINK-3283,1 50179U 21125Z   23035.89462404  .00009923  00000-0  64043-3 0  9996,2 50179  53.2135 276.4879 0001298  77.4366 282.6771 15.08853362 66195,6917.84,95.437,540.602,538.807,0.0
50179.0,STARLINK-3283,PAYLOAD,2023-02-04 23:03:38,15.08856009,0.0001301,53.2136,276.1905,77.0172,283.0965,0.00069713,0.00010829,0.0,0 STARLINK-3283,1 50179U 21125Z   23035.96086349  .00010829  00000-0  69713-3 0  9990,2 50179  53.2136 276.1905 0001301  77.0172 283.0965 15.08856009 65717,6917.831,95.437,540.596,538.796,0.0
50179.0,STARLINK-3283,PAYLOAD,2023-02-05 02:14:24,15.08861791,0.0001338,53.2129,275.595,76.3451,283.769,0.00076494,0.00011914,0.0,0 STARLINK-3283,1 50179U 21125Z   23036.09334103  .00011914  00000-0  76494-3 0  9999,2 50179  53.2129 275.5950 0001338  76.3451 283.7690 15.08861791 66227,6917.814,95.436,540.604,538.753,0.0
50179.0,STARLINK-3283,PAYLOAD,2023-02-05 21:19:03,15.08816119,0.0001082,53.212,272.0225,94.7036,265.408,0.00021826,3.185e-05,0.0,0 STARLINK-3283,1 50179U 21125Z   23036.88823900  .00003185  00000-0  21826-3 0  9994,2 50179  53.2120 272.0225 0001082  94.7036 265.4080 15.08816119 66341,6917.953,95.439,540.567,539.07,0.0
50179.0,STARLINK-3283,PAYLOAD,2023-02-06 00:29:50,15.08813011,0.0001118,53.2121,271.4279,93.27,266.842,8.96e-05,1.137e-05,0.0,0 STARLINK-3283,1 50179U 21125Z   23037.02072212  .00001137  00000-0  89600-4 0  9993,2 50179  53.2121 271.4279 0001118  93.2700 266.8420 15.08813011 65874,6917.963,95.439,540.601,539.054,0.0
50179.0,STARLINK-3283,PAYLOAD,2023-02-06 21:09:51,15.08860177,0.0001144,53.212,267.5661,74.3404,285.7714,0.0016826,0.00026607,0.0,0 STARLINK-3283,1 50179U 21125Z   23037.88184486  .00026607  00000-0  16826-2 0  9991,2 50179  53.2120 267.5661 0001144  74.3404 285.7714 15.08860177 66001,6917.819,95.436,540.475,538.892,0.0
50179.0,STARLINK-3283,PAYLOAD,2023-02-07 00:20:37,15.08866092,0.0001052,53.2115,266.9714,85.1086,275.0026,0.0016407,0.00025939,0.0,0 STARLINK-3283,1 50179U 21125Z   23038.01432220  .00025939  00000-0  16407-2 0  9991,2 50179  53.2115 266.9714 0001052  85.1086 275.0026 15.08866092 66517,6917.801,95.436,540.393,538.938,0.0
50179.0,STARLINK-3283,PAYLOAD,2023-02-07 21:00:37,15.08872948,0.0001164,53.212,263.1037,86.7645,273.348,0.00071094,0.00011055,0.0,0 STARLINK-3283,1 50179U 21125Z   23038.87543109  .00011055  00000-0  71094-3 0  9992,2 50179  53.2120 263.1037 0001164  86.7645 273.3480 15.08872948 66648,6917.78,95.435,540.45,538.839,0.0
50179.0,STARLINK-3283,PAYLOAD,2023-02-07 22:36:00,15.08868949,0.000127,53.2117,262.8086,80.8234,279.2901,0.00061856,9.578e-05,0.0,0 STARLINK-3283,1 50179U 21125Z   23038.94167088  .00009578  00000-0  61856-3 0  9990,2 50179  53.2117 262.8086 0001270  80.8234 279.2901 15.08868949 66167,6917.792,95.436,540.535,538.778,0.0
50179.0,STARLINK-3283,PAYLOAD,2023-02-08 19:16:01,15.08846073,8.02e-05,53.2114,258.9411,82.0154,278.0929,-3.2865e-06,-3.4e-06,0.0,0 STARLINK-3283,1 50179U 21125Z   23039.80278949 -.00000340  00000-0 -32865-5 0  9995,2 50179  53.2114 258.9411 0000802  82.0154 278.0929 15.08846073 66292,6917.862,95.437,540.282,539.172,0.0
50179.0,STARLINK-3283,PAYLOAD,2023-02-08 20:51:24,15.0884931,0.0001054,53.2116,258.6438,104.3759,255.735,9.5816e-05,1.238e-05,0.0,0 STARLINK-3283,1 50179U 21125Z   23039.86902867  .00001238  00000-0  95816-4 0  9993,2 50179  53.2116 258.6438 0001054 104.3759 255.7350 15.08849310 66791,6917.852,95.437,540.446,538.988,0.0
50179.0,STARLINK-3283,PAYLOAD,2023-02-09 00:02:10,15.08850438,0.0001033,53.2112,258.0483,103.1765,256.9342,0.00018724,2.694e-05,0.0,0 STARLINK-3283,1 50179U 21125Z   23040.00150797  .00002694  00000-0  18724-3 0  9997,2 50179  53.2112 258.0483 0001033 103.1765 256.9342 15.08850438 66812,6917.848,95.437,540.428,538.999,0.0
50179.0,STARLINK-3283,PAYLOAD,2023-02-09 20:42:11,15.08842775,0.0001146,53.2132,254.1819,88.778,271.3343,3.0472e-05,1.97e-06,0.0,0 STARLINK-3283,1 50179U 21125Z   23040.86263060  .00000197  00000-0  30472-4 0  9990,2 50179  53.2132 254.1819 0001146  88.7780 271.3343 15.08842775 66451,6917.872,95.437,540.53,538.944,0.0
50179.0,STARLINK-3283,PAYLOAD,2023-02-09 23:52:57,15.08851359,0.000101,53.2126,253.5856,105.7849,254.3254,0.00028601,4.268e-05,0.0,0 STARLINK-3283,1 50179U 21125Z   23040.99510936  .00004268  00000-0  28601-3 0  9994,2 50179  53.2126 253.5856 0001010 105.7849 254.3254 15.08851359 66960,6917.846,95.437,540.409,539.012,0.0
50179.0,STARLINK-3283,PAYLOAD,2023-02-10 20:32:58,15.08846788,0.0001038,53.2123,249.7188,97.6572,262.4538,0.00025405,3.758e-05,0.0,0 STARLINK-3283,1 50179U 21125Z   23041.85622994  .00003758  00000-0  25405-3 0  9990,2 50179  53.2123 249.7188 0001038  97.6572 262.4538 15.08846788 67094,6917.86,95.437,540.443,539.007,0.0
50179.0,STARLINK-3283,PAYLOAD,2023-02-11 20:23:45,15.08845296,0.000115,53.2127,245.2604,89.2974,270.815,0.0001445,2.013e-05,0.0,0 STARLINK-3283,1 50179U 21125Z   23042.84983581  .00002013  00000-0  14450-3 0  9993,2 50179  53.2127 245.2604 0001150  89.2974 270.8150 15.08845296 67243,6917.864,95.437,540.525,538.934,0.0
50179.0,STARLINK-3283,PAYLOAD,2023-02-11 21:59:08,15.08842111,0.0001155,53.2136,244.9637,88.7043,271.4081,0.0001875,2.698e-05,0.0,0 STARLINK-3283,1 50179U 21125Z   23042.91607381  .00002698  00000-0  18750-3 0  9998,2 50179  53.2136 244.9637 0001155  88.7043 271.4081 15.08842111 66760,6917.874,95.437,540.538,538.94,0.0
50179.0,STARLINK-3283,PAYLOAD,2023-02-12 13:53:00,15.08835882,0.0001173,53.2124,241.989,103.906,256.2063,6.747e-05,7.86e-06,0.0,0 STARLINK-3283,1 50179U 21125Z   23043.57847682  .00000786  00000-0  67470-4 0  9991,2 50179  53.2124 241.9890 0001173 103.9060 256.2063 15.08835882 66863,6917.893,95.438,540.569,538.947,0.0
50179.0,STARLINK-3283,PAYLOAD,2023-02-12 21:49:55,15.08846234,0.0001098,53.2131,240.5015,88.8162,271.2956,0.00010836,1.437e-05,0.0,0 STARLINK-3283,1 50179U 21125Z   23043.90967088  .00001437  00000-0  10836-3 0  9998,2 50179  53.2131 240.5015 0001098  88.8162 271.2956 15.08846234 66912,6917.861,95.437,540.486,538.967,0.0
50179.0,STARLINK-3283,PAYLOAD,2023-02-13 04:11:28,15.08832883,0.0001328,53.2131,239.3129,75.3474,284.7665,-4.049e-05,-9.32e-06,0.0,0 STARLINK-3283,1 50179U 21125Z   23044.17463945 -.00000932  00000-0 -40490-4 0  9992,2 50179  53.2131 239.3129 0001328  75.3474 284.7665 15.08832883 66952,6917.902,95.438,540.686,538.848,0.0
50179.0,STARLINK-3283,PAYLOAD,2023-02-13 13:43:47,15.08836583,0.000118,53.2124,237.5279,90.2399,269.8728,8.443e-05,1.056e-05,0.0,0 STARLINK-3283,1 50179U 21125Z   23044.57207833  .00001056  00000-0  84430-4 0  9996,2 50179  53.2124 237.5279 0001180  90.2399 269.8728 15.08836583 67505,6917.891,95.438,540.572,538.94,0.0
